[{"OBJECT_NAME":"THURAYA-2","OBJECT_ID":"2003-026A","EPOCH":"2026-03-28T22:55:38.709696","MEAN_MOTION":1.00272849,"ECCENTRICITY":0.0003559,"INCLINATION":8.7177,"RA_OF_ASC_NODE":32.2895,"ARG_OF_PERICENTER":327.2613,"MEAN_ANOMALY":214.7223,"EPHEMERIS_TYPE":0,"CLASSIFICATION_TYPE":"U","NORAD_CAT_ID":27825,"ELEMENT_SET_NO":999,"REV_AT_EPOCH":8354,"BSTAR":0,"MEAN_MOTION_DOT":1.11e-6,"MEAN_MOTION_DDOT":0},{"OBJECT_NAME":"BLOCK DM-SL R/B","OBJECT_ID":"2003-026B","EPOCH":"2026-03-28T20:33:09.913536","MEAN_MOTION":2.22049996,"ECCENTRICITY":0.69626729,"INCLINATION":5.7655,"RA_OF_ASC_NODE":98.0524,"ARG_OF_PERICENTER":261.8646,"MEAN_ANOMALY":334.841,"EPHEMERIS_TYPE":0,"CLASSIFICATION_TYPE":"U","NORAD_CAT_ID":27826,"ELEMENT_SET_NO":999,"REV_AT_EPOCH":18500,"BSTAR":0,"MEAN_MOTION_DOT":-2.58e-6,"MEAN_MOTION_DDOT":0},{"OBJECT_NAME":"OPTUS C1","OBJECT_ID":"2003-028B","EPOCH":"2026-03-28T18:39:38.769984","MEAN_MOTION":1.00273112,"ECCENTRICITY":0.00061791,"INCLINATION":6.69,"RA_OF_ASC_NODE":70.3701,"ARG_OF_PERICENTER":295.791,"MEAN_ANOMALY":255.6491,"EPHEMERIS_TYPE":0,"CLASSIFICATION_TYPE":"U","NORAD_CAT_ID":27831,"ELEMENT_SET_NO":999,"REV_AT_EPOCH":5225,"BSTAR":0,"MEAN_MOTION_DOT":-1.66e-6,"MEAN_MOTION_DDOT":0},{"OBJECT_NAME":"ARIANE 5 R/B","OBJECT_ID":"2003-028C","EPOCH":"2026-03-29T01:33:52.295040","MEAN_MOTION":2.24840894,"ECCENTRICITY":0.7176927,"INCLINATION":6.6048,"RA_OF_ASC_NODE":150.735,"ARG_OF_PERICENTER":240.383,"MEAN_ANOMALY":31.3075,"EPHEMERIS_TYPE":0,"CLASSIFICATION_TYPE":"U","NORAD_CAT_ID":27832,"ELEMENT_SET_NO":999,"REV_AT_EPOCH":18725,"BSTAR":0.001242,"MEAN_MOTION_DOT":-1.18e-6,"MEAN_MOTION_DDOT":0},{"OBJECT_NAME":"ARIANE 5 DEB [SYLDA]","OBJECT_ID":"2003-028D","EPOCH":"2026-03-28T03:57:17.074080","MEAN_MOTION":2.26624139,"ECCENTRICITY":0.71580625,"INCLINATION":6.3332,"RA_OF_ASC_NODE":144.8275,"ARG_OF_PERICENTER":255.411,"MEAN_ANOMALY":21.7566,"EPHEMERIS_TYPE":0,"CLASSIFICATION_TYPE":"U","NORAD_CAT_ID":27833,"ELEMENT_SET_NO":999,"REV_AT_EPOCH":18827,"BSTAR":0.0057836485,"MEAN_MOTION_DOT":3.07e-6,"MEAN_MOTION_DDOT":0},{"OBJECT_NAME":"BLOCK DM-SL R/B","OBJECT_ID":"2003-034B","EPOCH":"2026-03-29T01:21:37.152000","MEAN_MOTION":2.24672839,"ECCENTRICITY":0.7141221,"INCLINATION":0.9011,"RA_OF_ASC_NODE":339.9674,"ARG_OF_PERICENTER":229.1969,"MEAN_ANOMALY":350.0955,"EPHEMERIS_TYPE":0,"CLASSIFICATION_TYPE":"U","NORAD_CAT_ID":27855,"ELEMENT_SET_NO":999,"REV_AT_EPOCH":18590,"BSTAR":0.0015519,"MEAN_MOTION_DOT":-1.85e-6,"MEAN_MOTION_DDOT":0},{"OBJECT_NAME":"USA 170","OBJECT_ID":"2003-040A","EPOCH":"2026-03-29T01:10:05.776608","MEAN_MOTION":1.00270232,"ECCENTRICITY":0.0001551,"INCLINATION":10.3328,"RA_OF_ASC_NODE":48.6933,"ARG_OF_PERICENTER":352.8907,"MEAN_ANOMALY":186.4871,"EPHEMERIS_TYPE":0,"CLASSIFICATION_TYPE":"U","NORAD_CAT_ID":27875,"ELEMENT_SET_NO":999,"REV_AT_EPOCH":3219,"BSTAR":0,"MEAN_MOTION_DOT":1.13e-6,"MEAN_MOTION_DDOT":0},{"OBJECT_NAME":"IABS R/B","OBJECT_ID":"2003-040C","EPOCH":"2026-03-28T02:10:21.098208","MEAN_MOTION":1.00732583,"ECCENTRICITY":0.0012142,"INCLINATION":13.3269,"RA_OF_ASC_NODE":13.0576,"ARG_OF_PERICENTER":318.0314,"MEAN_ANOMALY":41.8591,"EPHEMERIS_TYPE":0,"CLASSIFICATION_TYPE":"U","NORAD_CAT_ID":27877,"ELEMENT_SET_NO":999,"REV_AT_EPOCH":2513,"BSTAR":0,"MEAN_MOTION_DOT":-9.7e-7,"MEAN_MOTION_DDOT":0},{"OBJECT_NAME":"COSMOS 917 DEB","OBJECT_ID":"1977-047F","EPOCH":"2026-03-28T16:23:36.193056","MEAN_MOTION":2.02139328,"ECCENTRICITY":0.74202992,"INCLINATION":60.2482,"RA_OF_ASC_NODE":234.7372,"ARG_OF_PERICENTER":52.4264,"MEAN_ANOMALY":354.0442,"EPHEMERIS_TYPE":0,"CLASSIFICATION_TYPE":"U","NORAD_CAT_ID":27883,"ELEMENT_SET_NO":999,"REV_AT_EPOCH":17377,"BSTAR":0.00069584969,"MEAN_MOTION_DOT":3.52e-6,"MEAN_MOTION_DDOT":0},{"OBJECT_NAME":"COSMOS 917 DEB","OBJECT_ID":"1977-047G","EPOCH":"2026-03-28T17:36:00.861120","MEAN_MOTION":2.01803871,"ECCENTRICITY":0.74308787,"INCLINATION":60.009,"RA_OF_ASC_NODE":223.8545,"ARG_OF_PERICENTER":64.1013,"MEAN_ANOMALY":352.2819,"EPHEMERIS_TYPE":0,"CLASSIFICATION_TYPE":"U","NORAD_CAT_ID":27884,"ELEMENT_SET_NO":999,"REV_AT_EPOCH":17225,"BSTAR":0.0016338301,"MEAN_MOTION_DOT":-3.53e-6,"MEAN_MOTION_DDOT":0},{"OBJECT_NAME":"COSMOS 917 DEB","OBJECT_ID":"1977-047K","EPOCH":"2026-03-08T12:37:38.717184","MEAN_MOTION":1.97913515,"ECCENTRICITY":0.6628392,"INCLINATION":63.4034,"RA_OF_ASC_NODE":245.6676,"ARG_OF_PERICENTER":10.4409,"MEAN_ANOMALY":2.5908,"EPHEMERIS_TYPE":0,"CLASSIFICATION_TYPE":"U","NORAD_CAT_ID":27887,"ELEMENT_SET_NO":999,"REV_AT_EPOCH":2600,"BSTAR":0,"MEAN_MOTION_DOT":5.01e-6,"MEAN_MOTION_DDOT":0},{"OBJECT_NAME":"COSMOS 917 DEB","OBJECT_ID":"1977-047L","EPOCH":"2026-03-28T13:27:41.290848","MEAN_MOTION":2.02018326,"ECCENTRICITY":0.7408498,"INCLINATION":60.3029,"RA_OF_ASC_NODE":240.6616,"ARG_OF_PERICENTER":52.2735,"MEAN_ANOMALY":354.0393,"EPHEMERIS_TYPE":0,"CLASSIFICATION_TYPE":"U","NORAD_CAT_ID":27888,"ELEMENT_SET_NO":999,"REV_AT_EPOCH":21657,"BSTAR":0.00070296,"MEAN_MOTION_DOT":1.685e-5,"MEAN_MOTION_DDOT":0},{"OBJECT_NAME":"COSMOS 1191 DEB","OBJECT_ID":"1980-057K","EPOCH":"2026-03-28T23:22:26.376096","MEAN_MOTION":1.9925139,"ECCENTRICITY":0.7347795,"INCLINATION":63.0922,"RA_OF_ASC_NODE":5.5227,"ARG_OF_PERICENTER":44.8582,"MEAN_ANOMALY":354.716,"EPHEMERIS_TYPE":0,"CLASSIFICATION_TYPE":"U","NORAD_CAT_ID":27897,"ELEMENT_SET_NO":999,"REV_AT_EPOCH":16838,"BSTAR":0,"MEAN_MOTION_DOT":5.1e-7,"MEAN_MOTION_DDOT":0},{"OBJECT_NAME":"COSMOS 1191 DEB","OBJECT_ID":"1980-057L","EPOCH":"2026-03-27T09:27:30.352320","MEAN_MOTION":1.99657848,"ECCENTRICITY":0.697613,"INCLINATION":64.7255,"RA_OF_ASC_NODE":64.3135,"ARG_OF_PERICENTER":31.4692,"MEAN_ANOMALY":355.706,"EPHEMERIS_TYPE":0,"CLASSIFICATION_TYPE":"U","NORAD_CAT_ID":27898,"ELEMENT_SET_NO":999,"REV_AT_EPOCH":4131,"BSTAR":0,"MEAN_MOTION_DOT":-5.95e-6,"MEAN_MOTION_DDOT":0},{"OBJECT_NAME":"COSMOS 1382 DEB","OBJECT_ID":"1982-064G","EPOCH":"2026-03-27T10:11:22.841088","MEAN_MOTION":2.00205449,"ECCENTRICITY":0.7153185,"INCLINATION":62.2158,"RA_OF_ASC_NODE":179.6399,"ARG_OF_PERICENTER":38.1542,"MEAN_ANOMALY":1.3229,"EPHEMERIS_TYPE":0,"CLASSIFICATION_TYPE":"U","NORAD_CAT_ID":27905,"ELEMENT_SET_NO":999,"REV_AT_EPOCH":18324,"BSTAR":0,"MEAN_MOTION_DOT":9.32e-6,"MEAN_MOTION_DDOT":0},{"OBJECT_NAME":"TITAN 4B CENTAUR R/B","OBJECT_ID":"2003-041B","EPOCH":"2026-03-28T10:37:14.540160","MEAN_MOTION":1.008605,"ECCENTRICITY":0.0031129,"INCLINATION":15.4966,"RA_OF_ASC_NODE":38.1896,"ARG_OF_PERICENTER":111.8728,"MEAN_ANOMALY":248.4449,"EPHEMERIS_TYPE":0,"CLASSIFICATION_TYPE":"U","NORAD_CAT_ID":27938,"ELEMENT_SET_NO":999,"REV_AT_EPOCH":2413,"BSTAR":0,"MEAN_MOTION_DOT":-4.2e-7,"MEAN_MOTION_DDOT":0},{"OBJECT_NAME":"ARIANE 5 R/B","OBJECT_ID":"2003-043B","EPOCH":"2026-03-28T18:27:18.461952","MEAN_MOTION":2.23562056,"ECCENTRICITY":0.7173095,"INCLINATION":8.1314,"RA_OF_ASC_NODE":359.406,"ARG_OF_PERICENTER":43.1135,"MEAN_ANOMALY":354.4245,"EPHEMERIS_TYPE":0,"CLASSIFICATION_TYPE":"U","NORAD_CAT_ID":27946,"ELEMENT_SET_NO":999,"REV_AT_EPOCH":18381,"BSTAR":0.0020175,"MEAN_MOTION_DOT":-7.7e-7,"MEAN_MOTION_DDOT":0}]
