THURAYA-2               
1 27825U 03026A   26087.95530914  .00000111  00000+0  00000+0 0  9995
2 27825   8.7177  32.2895 0003559 327.2613 214.7223  1.00272849 83545
BLOCK DM-SL R/B         
1 27826U 03026B   26087.85636474 -.00000258  00000+0  00000+0 0  9996
2 27826   5.7655  98.0524 6962672 261.8646 334.8410  2.22049996185004
OPTUS C1                
1 27831U 03028B   26087.77753206 -.00000166  00000+0  00000+0 0  9996
2 27831   6.6900  70.3701 0006179 295.7910 255.6491  1.00273112 52251
ARIANE 5 R/B            
1 27832U 03028C   26088.06518860 -.00000118  00000+0  12420-2 0  9994
2 27832   6.6048 150.7350 7176927 240.3830  31.3075  2.24840894187251
ARIANE 5 DEB [SYLDA]    
1 27833U 03028D   26087.16478095  .00000307  00000+0  57836-2 0  9999
2 27833   6.3332 144.8275 7158062 255.4110  21.7566  2.26624139188278
BLOCK DM-SL R/B         
1 27855U 03034B   26088.05668000 -.00000185  00000+0  15519-2 0  9993
2 27855   0.9011 339.9674 7141221 229.1969 350.0955  2.24672839185900
USA 170                 
1 27875U 03040A   26088.04867797  .00000113  00000+0  00000+0 0  9991
2 27875  10.3328  48.6933 0001551 352.8907 186.4871  1.00270232 32194
IABS R/B                
1 27877U 03040C   26087.09052197 -.00000097  00000+0  00000+0 0  9999
2 27877  13.3269  13.0576 0012142 318.0314  41.8591  1.00732583 25137
COSMOS 917 DEB          
1 27883U 77047F   26087.68305779  .00000352  00000+0  69585-3 0  9996
2 27883  60.2482 234.7372 7420299  52.4264 354.0442  2.02139328173773
COSMOS 917 DEB          
1 27884U 77047G   26087.73334330 -.00000353  00000+0  16338-2 0  9997
2 27884  60.0090 223.8545 7430878  64.1013 352.2819  2.01803871172254
COSMOS 917 DEB          
1 27887U 77047K   26067.52614256  .00000501  00000+0  00000+0 0  9993
2 27887  63.4034 245.6676 6628392  10.4409   2.5908  1.97913515 26007
COSMOS 917 DEB          
1 27888U 77047L   26087.56089457  .00001685  00000+0  70296-3 0  9991
2 27888  60.3029 240.6616 7408498  52.2735 354.0393  2.02018326216576
COSMOS 1191 DEB         
1 27897U 80057K   26087.97391639  .00000051  00000+0  00000+0 0  9997
2 27897  63.0922   5.5227 7347795  44.8582 354.7160  1.99251390168382
COSMOS 1191 DEB         
1 27898U 80057L   26086.39410130 -.00000595  00000+0  00000+0 0  9995
2 27898  64.7255  64.3135 6976130  31.4692 355.7060  1.99657848 41316
COSMOS 1382 DEB         
1 27905U 82064G   26086.42456992  .00000932  00000+0  00000+0 0  9998
2 27905  62.2158 179.6399 7153185  38.1542   1.3229  2.00205449183247
TITAN 4B CENTAUR R/B    
1 27938U 03041B   26087.44252940 -.00000042  00000+0  00000+0 0  9995
2 27938  15.4966  38.1896 0031129 111.8728 248.4449  1.00860500 24136
ARIANE 5 R/B            
1 27946U 03043B   26087.76896368 -.00000077  00000+0  20175-2 0  9995
2 27946   8.1314 359.4060 7173095  43.1135 354.4245  2.23562056183812
